[{"OBJECT_NAME":"IRIDIUM 149","OBJECT_ID":"2018-030B","EPOCH":"2026-03-09T19:36:11.240064","MEAN_MOTION":14.34219768,"ECCENTRICITY":0.00021302,"INCLINATION":86.4008,"RA_OF_ASC_NODE":331.9304,"ARG_OF_PERICENTER":82.8556,"MEAN_ANOMALY":277.2882,"EPHEMERIS_TYPE":0,"CLASSIFICATION_TYPE":"U","NORAD_CAT_ID":43250,"ELEMENT_SET_NO":999,"REV_AT_EPOCH":41591,"BSTAR":0.00012927416,"MEAN_MOTION_DOT":3.82e-6,"MEAN_MOTION_DDOT":0},{"OBJECT_NAME":"COSMOS 2251 DEB","OBJECT_ID":"1993-036GU","EPOCH":"2026-03-09T16:25:15.390624","MEAN_MOTION":14.3330396,"ECCENTRICITY":0.00283985,"INCLINATION":74.038,"RA_OF_ASC_NODE":178.0414,"ARG_OF_PERICENTER":230.515,"MEAN_ANOMALY":254.5704,"EPHEMERIS_TYPE":0,"CLASSIFICATION_TYPE":"U","NORAD_CAT_ID":34009,"ELEMENT_SET_NO":999,"REV_AT_EPOCH":89191,"BSTAR":0.00017819711,"MEAN_MOTION_DOT":4.67e-6,"MEAN_MOTION_DDOT":0}]
